     2.100          NAVIGATION                              RINEX VERSION / TYPE
fic2rin                                 07/31/2012 00:14:01 PGM / RUN BY / DATE
                                                            END OF HEADER
13 12  7 30  4  0  0.0  .191358383745D-03 -.250111042988D-11  .000000000000D+00
     .890000000000D+02  .110906250000D+03  .371194033150D-08  .171451453413D-01
     .573135912418D-05  .490678206552D-02  .944361090660D-05  .515364334297D+04
     .100800000000D+06 -.651925802231D-07 -.169142872131D+00 -.577419996262D-07
     .985371845333D+00  .211593750000D+03  .205575321364D+01 -.770567811528D-08
    -.108575951196D-09  .100000000000D+01  .169900000000D+04  .000000000000D+00
     .240000000000D+01  .000000000000D+00 -.111758708954D-07  .890000000000D+02
     .936060000000D+05  .400000000000D+01
14 12  7 30  4  0  0.0  .208485871553D-03  .113686837722D-11  .000000000000D+00
     .590000000000D+02  .125437500000D+03  .391694887093D-08  .268333010107D+00
     .663287937641D-05  .661824585404D-02  .101700425148D-04  .515362631607D+04
     .100800000000D+06 -.596046447754D-07 -.196262893674D+00  .670552253723D-07
     .978168700035D+00  .193406250000D+03 -.206598747985D+01 -.785282710177D-08
    -.130362572982D-09  .100000000000D+01  .169900000000D+04  .000000000000D+00
     .240000000000D+01  .000000000000D+00 -.931322574615D-08  .590000000000D+02
     .936060000000D+05  .400000000000D+01
15 12  7 30  4  0  0.0 -.930721871555D-04 -.454747350886D-12  .000000000000D+00
     .140000000000D+02  .121125000000D+03  .461090634847D-08 -.183739533718D+00
     .611320137978D-05  .448307232000D-02  .102408230305D-04  .515360774231D+04
     .100800000000D+06  .838190317154D-07 -.286098159148D+00  .130385160446D-07
     .944908562617D+00  .174281250000D+03  .401843920127D-01 -.812462413749D-08
    -.227509476683D-09  .100000000000D+01  .169900000000D+04  .000000000000D+00
     .240000000000D+01  .000000000000D+00 -.102445483208D-07  .140000000000D+02
     .936060000000D+05  .400000000000D+01
16 12  7 30  4  0  0.0 -.242418609560D-03 -.102318153949D-11  .000000000000D+00
     .330000000000D+02 -.122875000000D+03  .391944897507D-08  .146614895579D+01
    -.628456473351D-05  .655872444622D-02  .514835119247D-05  .515371843529D+04
     .100800000000D+06 -.689178705215D-07  .187564886019D+01  .633299350739D-07
     .981232525942D+00  .292281250000D+03  .237105914813D-01 -.789532887214D-08
    -.238224208709D-09  .100000000000D+01  .169900000000D+04  .000000000000D+00
     .240000000000D+01  .000000000000D+00 -.977888703346D-08  .330000000000D+02
     .936060000000D+05  .400000000000D+01
17 12  7 30  4  0  0.0  .109300483018D-03 -.306954461848D-11  .000000000000D+00
     .320000000000D+02 -.412187500000D+02  .430053627746D-08  .544130493882D+00
    -.231899321079D-05  .744839420076D-02  .113062560558D-04  .515372214127D+04
     .100800000000D+06 -.163912773132D-06  .291545807431D+01  .121071934700D-06
     .963772423116D+00  .165343750000D+03 -.229594464066D+01 -.786497046473D-08
     .497520723735D-09  .100000000000D+01  .169900000000D+04  .000000000000D+00
     .240000000000D+01  .000000000000D+00 -.107102096081D-07  .320000000000D+02
     .936060000000D+05  .400000000000D+01
19 12  7 30  4  0  0.0 -.289461109787D-03 -.363797880709D-11  .000000000000D+00
     .890000000000D+02 -.411562500000D+02  .436232456547D-08 -.283396020719D+00
    -.202469527721D-05  .852122262586D-02  .104326754808D-04  .515360868073D+04
     .100800000000D+06  .126659870148D-06  .296828122711D+01 -.204890966415D-07
     .961125549343D+00  .178093750000D+03  .212250088154D+00 -.795140263641D-08
     .521450291926D-09  .100000000000D+01  .169900000000D+04  .000000000000D+00
     .340000000000D+01  .000000000000D+00 -.149011611938D-07  .890000000000D+02
     .936060000000D+05  .400000000000D+01
20 12  7 30  4  0  0.0  .654128380120D-04  .568434188608D-12  .000000000000D+00
     .270000000000D+02 -.133750000000D+02  .542379735150D-08  .241163784777D+01
    -.802800059319D-06  .491684849840D-02  .809878110886D-05  .515365827942D+04
     .100800000000D+06 -.316649675369D-07 -.135606273478D+01 -.670552253723D-07
     .929337521518D+00  .203718750000D+03  .128115743776D+01 -.830498879326D-08
    -.564666377764D-09  .100000000000D+01  .169900000000D+04  .000000000000D+00
     .240000000000D+01  .000000000000D+00 -.791624188423D-08  .270000000000D+02
     .936060000000D+05  .400000000000D+01
21 12  7 30  4  0  0.0 -.239847693592D-03 -.250111042988D-11  .000000000000D+00
     .101000000000D+03  .141875000000D+02  .559451874845D-08  .313363910593D+01
     .527128577232D-06  .192909603938D-01  .597164034843D-05  .515357747650D+04
     .100800000000D+06  .409781932831D-07 -.235304174813D+01 -.333413481712D-06
     .931311068227D+00  .249156250000D+03 -.223086422246D+01 -.816641159239D-08
     .350728894981D-09  .100000000000D+01  .169900000000D+04  .000000000000D+00
     .240000000000D+01  .000000000000D+00 -.111758708954D-07  .101000000000D+03
     .936060000000D+05  .400000000000D+01
22 12  7 30  4  0  0.0  .145981553942D-03  .454747350886D-12  .000000000000D+00
     .000000000000D+00 -.181875000000D+02  .562844873320D-08  .121818936209D+01
    -.882893800735D-06  .631048448849D-02  .872835516930D-05  .515367252731D+04
     .100800000000D+06 -.147148966789D-06 -.129911442656D+01 -.372529029846D-08
     .926569210915D+00  .196718750000D+03 -.200836063365D+01 -.853464121635D-08
    -.645026867958D-09  .100000000000D+01  .169900000000D+04  .000000000000D+00
     .340000000000D+01  .000000000000D+00 -.172294676304D-07  .256000000000D+03
     .936060000000D+05  .400000000000D+01
23 12  7 30  4  0  0.0  .180330127478D-03 -.386535248253D-11  .000000000000D+00
     .450000000000D+02  .985625000000D+02  .424839124826D-08 -.688794856648D+00
     .504218041897D-05  .816109462176D-02  .945478677750D-05  .515361034393D+04
     .100800000000D+06  .162050127983D-06 -.249466552929D+00 -.484287738800D-07
     .959711342047D+00  .197562500000D+03 -.296673400399D+01 -.792997317236D-08
    -.175721605224D-09  .100000000000D+01  .169900000000D+04  .000000000000D+00
     .240000000000D+01  .000000000000D+00 -.200234353542D-07  .450000000000D+02
     .936060000000D+05  .400000000000D+01
25 12  7 30  4  0  0.0  .384179875255D-04  .909494701773D-12  .000000000000D+00
     .790000000000D+02 -.137781250000D+03  .416945938901D-08  .247622689226D+01
    -.706315040588D-05  .181113928556D-02  .481866300106D-05  .515368742371D+04
     .100800000000D+06  .391155481339D-07  .182262972757D+01 -.558793544769D-08
     .969250571485D+00  .291218750000D+03  .775570385071D+00 -.815533970263D-08
    -.182150444440D-09  .100000000000D+01  .169900000000D+04  .000000000000D+00
     .240000000000D+01  .000000000000D+00  .512227416039D-08  .790000000000D+02
     .936060000000D+05  .400000000000D+01
26 12  7 30  4  0  0.0 -.331119168550D-03  .118234311230D-10  .000000000000D+00
     .970000000000D+02  .135750000000D+03  .386158942213D-08 -.827182151000D+00
     .722333788872D-05  .207783790538D-01  .914745032787D-05  .515367607498D+04
     .100800000000D+06 -.109896063805D-06 -.175416866954D+00  .379979610443D-06
     .982889763430D+00  .218406250000D+03  .120352372538D+01 -.803890628129D-08
    -.106075847056D-09  .100000000000D+01  .169900000000D+04  .000000000000D+00
     .340000000000D+01  .000000000000D+00 -.605359673500D-08  .970000000000D+02
     .936060000000D+05  .400000000000D+01
27 12  7 30  4  0  0.0  .414547510445D-03  .409272615798D-11  .000000000000D+00
     .630000000000D+02  .570625000000D+02  .423767651624D-08  .154971037566D-01
     .301748514175D-05  .217322792159D-01  .230595469475D-05  .515370146561D+04
     .100800000000D+06 -.175088644028D-06  .747947562972D+00 -.413507223129D-06
     .982051806880D+00  .352625000000D+03 -.105433042571D+01 -.859142929609D-08
     .421446126351D-10  .100000000000D+01  .169900000000D+04  .000000000000D+00
     .240000000000D+01  .000000000000D+00 -.419095158577D-08  .630000000000D+02
     .936060000000D+05  .400000000000D+01
28 12  7 30  4  0  0.0  .170024111867D-03  .386535248253D-11  .000000000000D+00
     .700000000000D+01 -.117718750000D+03  .407374111624D-08  .116068241520D+01
    -.629760324955D-05  .179486593697D-01  .626593828201D-05  .515363439751D+04
     .100800000000D+06 -.337138772011D-06  .188229837145D+01 -.109896063805D-06
     .979609071621D+00  .272718750000D+03 -.182515351288D+01 -.822284251440D-08
    -.241081470582D-09  .100000000000D+01  .169900000000D+04  .000000000000D+00
     .240000000000D+01  .000000000000D+00 -.107102096081D-07  .700000000000D+01
     .936060000000D+05  .400000000000D+01
29 12  7 30  4  0  0.0  .338778831065D-03  .409272615798D-11  .000000000000D+00
     .930000000000D+02 -.558125000000D+02  .415374444870D-08 -.288255235367D+01
    -.291876494884D-05  .203486194368D-02  .114273279905D-04  .515355038834D+04
     .100800000000D+06  .298023223877D-07  .292405410195D+01  .912696123123D-07
     .964331785935D+00  .156687500000D+03 -.111371563068D+01 -.770103506474D-08
     .593596154234D-09  .100000000000D+01  .169900000000D+04  .000000000000D+00
     .240000000000D+01  .000000000000D+00 -.977888703346D-08  .930000000000D+02
     .936060000000D+05  .400000000000D+01
31 12  7 30  4  0  0.0  .263897702098D-03  .272848410532D-11  .000000000000D+00
     .230000000000D+02  .646250000000D+02  .423339062343D-08 -.227454330194D+01
     .338815152645D-05  .774361821823D-02  .151060521603D-05  .515369247246D+04
     .100800000000D+06 -.447034835815D-07  .803452001767D+00  .225380063057D-06
     .980917470441D+00  .363718750000D+03 -.858442656417D+00 -.820248452355D-08
     .732173355102D-10  .100000000000D+01  .169900000000D+04  .000000000000D+00
     .240000000000D+01  .000000000000D+00 -.135041773319D-07  .230000000000D+02
     .936060000000D+05  .400000000000D+01
